{
"type": "FeatureCollection",
"name": "amenity_polygons",
"crs": { "type": "name", "properties": { "name": "urn:ogc:def:crs:OGC:1.3:CRS84" } },
"features": [
{ "type": "Feature", "properties": { "osm_id": 302094304, "amenity": "parking", "addr:housenumber": "308", "building": "yes", "name": null, "religion": null, "addr:postcode": "540308", "addr:street": "Anchorvale Road", "addr:city": "Singapore", "parking": "multi-storey", "website": null, "fax": null, "contact:facebook": null, "name:ms": null, "wikipedia": null, "school": null, "addr:country": null, "phone": null, "wikidata": null, "name:zh": null, "email": null }, "geometry": { "type": "Polygon", "coordinates": [ [ [ 103.8861602, 1.3895973 ], [ 103.8866057, 1.3893147 ], [ 103.8866719, 1.389419 ], [ 103.8866979, 1.3894025 ], [ 103.8867889, 1.3895459 ], [ 103.8862909, 1.3898618 ], [ 103.8862591, 1.3898117 ], [ 103.8862356, 1.3898266 ], [ 103.886186, 1.3897485 ], [ 103.886236, 1.3897168 ], [ 103.8861602, 1.3895973 ] ] ] } },
{ "type": "Feature", "properties": { "osm_id": 302094640, "amenity": "parking", "addr:housenumber": null, "building": "yes", "name": "310 MSCP", "religion": null, "addr:postcode": null, "addr:street": null, "addr:city": null, "parking": "multi-storey", "website": null, "fax": null, "contact:facebook": null, "name:ms": null, "wikipedia": null, "school": null, "addr:country": null, "phone": null, "wikidata": null, "name:zh": null, "email": null }, "geometry": { "type": "Polygon", "coordinates": [ [ [ 103.8847119, 1.3903852 ], [ 103.885126, 1.3901456 ], [ 103.8853905, 1.390138 ], [ 103.885609, 1.3904273 ], [ 103.8854653, 1.3905001 ], [ 103.8847828, 1.3904829 ], [ 103.8847119, 1.3903852 ] ] ] } },
{ "type": "Feature", "properties": { "osm_id": 302094638, "amenity": "parking", "addr:housenumber": "312", "building": "yes", "name": null, "religion": null, "addr:postcode": "540312", "addr:street": "Anchorvale Lane", "addr:city": "Singapore", "parking": "multi-storey", "website": null, "fax": null, "contact:facebook": null, "name:ms": null, "wikipedia": null, "school": null, "addr:country": null, "phone": null, "wikidata": null, "name:zh": null, "email": null }, "geometry": { "type": "Polygon", "coordinates": [ [ [ 103.8847427, 1.3921341 ], [ 103.8848701, 1.392046 ], [ 103.8855831, 1.3920311 ], [ 103.88564, 1.3921531 ], [ 103.8851819, 1.3924485 ], [ 103.884923, 1.3924458 ], [ 103.8847427, 1.3921341 ] ] ] } },
{ "type": "Feature", "properties": { "osm_id": 302094301, "amenity": "place_of_worship", "addr:housenumber": "31", "building": "yes", "name": "Sengkang Methodist Church", "religion": "christian", "addr:postcode": null, "addr:street": "Anchorvale Road", "addr:city": null, "parking": null, "website": null, "fax": null, "contact:facebook": null, "name:ms": null, "wikipedia": null, "school": null, "addr:country": null, "phone": null, "wikidata": null, "name:zh": null, "email": null }, "geometry": { "type": "Polygon", "coordinates": [ [ [ 103.8861375, 1.3922643 ], [ 103.8861634, 1.3922145 ], [ 103.886217, 1.3921714 ], [ 103.8863004, 1.3921235 ], [ 103.8863857, 1.3921043 ], [ 103.8865314, 1.3921072 ], [ 103.8866272, 1.3922959 ], [ 103.8863359, 1.3924761 ], [ 103.8862937, 1.3924042 ], [ 103.886194, 1.3924742 ], [ 103.8861624, 1.3924243 ], [ 103.886149, 1.3923678 ], [ 103.886149, 1.392318 ], [ 103.8861634, 1.3922739 ], [ 103.8861375, 1.3922643 ] ] ] } },
{ "type": "Feature", "properties": { "osm_id": 694956143, "amenity": "parking", "addr:housenumber": "353", "building": "garage", "name": null, "religion": null, "addr:postcode": "540353", "addr:street": "Anchorvale Lane", "addr:city": "Singapore", "parking": "multi-storey", "website": null, "fax": null, "contact:facebook": null, "name:ms": null, "wikipedia": null, "school": null, "addr:country": null, "phone": null, "wikidata": null, "name:zh": null, "email": null }, "geometry": { "type": "Polygon", "coordinates": [ [ [ 103.8853067, 1.3928601 ], [ 103.8856357, 1.392688 ], [ 103.8857006, 1.3928131 ], [ 103.8857801, 1.3929662 ], [ 103.8859059, 1.3932085 ], [ 103.8859075, 1.3932292 ], [ 103.8859297, 1.393522 ], [ 103.8858856, 1.3935588 ], [ 103.8857577, 1.3935695 ], [ 103.8855704, 1.3935853 ], [ 103.8855551, 1.3933392 ], [ 103.8853105, 1.3928674 ], [ 103.8853067, 1.3928601 ] ] ] } },
{ "type": "Feature", "properties": { "osm_id": 545048017, "amenity": "parking", "addr:housenumber": "351", "building": "yes", "name": null, "religion": null, "addr:postcode": "540351", "addr:street": "Anchorvale Road", "addr:city": "Singapore", "parking": "multi-storey", "website": null, "fax": null, "contact:facebook": null, "name:ms": null, "wikipedia": null, "school": null, "addr:country": null, "phone": null, "wikidata": null, "name:zh": null, "email": null }, "geometry": { "type": "Polygon", "coordinates": [ [ [ 103.8862081, 1.3931989 ], [ 103.8870371, 1.3931116 ], [ 103.887066, 1.3931086 ], [ 103.8871066, 1.3933687 ], [ 103.8870191, 1.3933789 ], [ 103.8870259, 1.3934407 ], [ 103.8870077, 1.3934427 ], [ 103.8870081, 1.3934462 ], [ 103.8867538, 1.3934742 ], [ 103.8862447, 1.3935303 ], [ 103.8862081, 1.3931989 ] ] ] } },
{ "type": "Feature", "properties": { "osm_id": 32696131, "amenity": "school", "addr:housenumber": "20", "building": null, "name": "Nan Chiau High School", "religion": null, "addr:postcode": "545079", "addr:street": "Anchorvale Link", "addr:city": "Singapore", "parking": null, "website": "https:\/\/nchs.edu.sg\/", "fax": "+65 6489 7970", "contact:facebook": "https:\/\/www.facebook.com\/nanchiauhighschool", "name:ms": "Sekolah Tinggi Nan Chiau", "wikipedia": "en:Nan Chiau High School", "school": "secondary", "addr:country": "SG", "phone": "+65 6489 7971", "wikidata": "Q6962187", "name:zh": "南侨中学", "email": "nchs@moe.edu.sg" }, "geometry": { "type": "Polygon", "coordinates": [ [ [ 103.8890204, 1.3889987 ], [ 103.8905999, 1.3884053 ], [ 103.8910726, 1.3897731 ], [ 103.8896871, 1.3902361 ], [ 103.8895916, 1.3902202 ], [ 103.8894895, 1.3901777 ], [ 103.8894099, 1.3900809 ], [ 103.8890942, 1.3891655 ], [ 103.8890204, 1.3889987 ] ] ] } },
{ "type": "Feature", "properties": { "osm_id": 32695945, "amenity": "school", "addr:housenumber": "31", "building": null, "name": "Anchor Green Primary School", "religion": null, "addr:postcode": "544969", "addr:street": "Anchorvale Drive", "addr:city": "Singapore", "parking": null, "website": "https:\/\/anchorgreenpri.moe.edu.sg\/", "fax": "+65 6315 9825", "contact:facebook": null, "name:ms": null, "wikipedia": null, "school": "primary", "addr:country": "SG", "phone": "+65 6886 1356", "wikidata": null, "name:zh": "安泰小学", "email": "anchorgreen_ps@moe.edu.sg" }, "geometry": { "type": "Polygon", "coordinates": [ [ [ 103.8862091, 1.3907865 ], [ 103.8875776, 1.3899731 ], [ 103.8880731, 1.3908247 ], [ 103.8868007, 1.3914509 ], [ 103.8866802, 1.3914509 ], [ 103.8865811, 1.3913895 ], [ 103.8862091, 1.3907865 ] ] ] } },
{ "type": "Feature", "properties": { "osm_id": 302094637, "amenity": "parking", "addr:housenumber": "306", "building": "yes", "name": null, "religion": null, "addr:postcode": "540306", "addr:street": "Anchorvale Link", "addr:city": "Singapore", "parking": "multi-storey", "website": null, "fax": null, "contact:facebook": null, "name:ms": null, "wikipedia": null, "school": null, "addr:country": null, "phone": null, "wikidata": null, "name:zh": null, "email": null }, "geometry": { "type": "Polygon", "coordinates": [ [ [ 103.8879487, 1.3904549 ], [ 103.8887554, 1.3901491 ], [ 103.8888004, 1.3902735 ], [ 103.888707, 1.3903085 ], [ 103.8887624, 1.3904537 ], [ 103.8881191, 1.3906988 ], [ 103.8879487, 1.3904549 ] ] ] } },
{ "type": "Feature", "properties": { "osm_id": 302094593, "amenity": "parking", "addr:housenumber": "313", "building": "yes", "name": null, "religion": null, "addr:postcode": "540313", "addr:street": "Anchorvale Road", "addr:city": "Singapore", "parking": "multi-storey", "website": null, "fax": null, "contact:facebook": null, "name:ms": null, "wikipedia": null, "school": null, "addr:country": null, "phone": null, "wikidata": null, "name:zh": null, "email": null }, "geometry": { "type": "Polygon", "coordinates": [ [ [ 103.8870229, 1.3918099 ], [ 103.8870333, 1.3917673 ], [ 103.8870588, 1.3917325 ], [ 103.8870952, 1.3917101 ], [ 103.8871368, 1.3917029 ], [ 103.8871781, 1.3917115 ], [ 103.8872133, 1.3917349 ], [ 103.8872374, 1.3917699 ], [ 103.8872468, 1.3918117 ], [ 103.8872396, 1.3918546 ], [ 103.8872206, 1.391887 ], [ 103.8875682, 1.3927457 ], [ 103.8875245, 1.3927606 ], [ 103.8875374, 1.3927977 ], [ 103.8875418, 1.3927988 ], [ 103.8875672, 1.3928117 ], [ 103.8875858, 1.3928335 ], [ 103.8875909, 1.3928449 ], [ 103.8875946, 1.3928609 ], [ 103.8875921, 1.3928896 ], [ 103.8875787, 1.3929152 ], [ 103.8875565, 1.3929336 ], [ 103.8875289, 1.3929419 ], [ 103.8875003, 1.3929391 ], [ 103.8874752, 1.3929254 ], [ 103.8874572, 1.3929035 ], [ 103.8874522, 1.3928916 ], [ 103.887449, 1.3928763 ], [ 103.8874518, 1.3928482 ], [ 103.8874649, 1.3928232 ], [ 103.8874737, 1.3928141 ], [ 103.8874626, 1.3927817 ], [ 103.8874005, 1.3928029 ], [ 103.8870913, 1.3920237 ], [ 103.8871683, 1.391997 ], [ 103.8871593, 1.391971 ], [ 103.8871056, 1.3919895 ], [ 103.8870974, 1.3919659 ], [ 103.8871212, 1.3919576 ], [ 103.887109, 1.3919239 ], [ 103.8870789, 1.3919119 ], [ 103.8870506, 1.3918888 ], [ 103.8870297, 1.3918538 ], [ 103.8870229, 1.3918099 ] ] ] } },
{ "type": "Feature", "properties": { "osm_id": 452267108, "amenity": "parking", "addr:housenumber": "326", "building": "yes", "name": null, "religion": null, "addr:postcode": "540326", "addr:street": "Anchorvale Road", "addr:city": "Singapore", "parking": "multi-storey", "website": null, "fax": null, "contact:facebook": null, "name:ms": null, "wikipedia": null, "school": null, "addr:country": null, "phone": null, "wikidata": null, "name:zh": null, "email": null }, "geometry": { "type": "Polygon", "coordinates": [ [ [ 103.8882215, 1.3951084 ], [ 103.8884372, 1.3947412 ], [ 103.8884363, 1.3947321 ], [ 103.8885939, 1.3947173 ], [ 103.8887058, 1.3947068 ], [ 103.8888806, 1.3946903 ], [ 103.8889106, 1.3950084 ], [ 103.8886275, 1.3950351 ], [ 103.8884914, 1.3952668 ], [ 103.8884524, 1.3952439 ], [ 103.8882481, 1.395124 ], [ 103.8882215, 1.3951084 ] ] ] } },
{ "type": "Feature", "properties": { "osm_id": 302094597, "amenity": "parking", "addr:housenumber": "318", "building": "yes", "name": null, "religion": null, "addr:postcode": "540318", "addr:street": "Anchorvale Link", "addr:city": "Singapore", "parking": "multi-storey", "website": null, "fax": null, "contact:facebook": null, "name:ms": null, "wikipedia": null, "school": null, "addr:country": null, "phone": null, "wikidata": null, "name:zh": null, "email": null }, "geometry": { "type": "Polygon", "coordinates": [ [ [ 103.8897467, 1.3920222 ], [ 103.8897499, 1.3919937 ], [ 103.8897636, 1.3919686 ], [ 103.8897859, 1.3919507 ], [ 103.8898134, 1.3919427 ], [ 103.8898419, 1.3919458 ], [ 103.889867, 1.3919596 ], [ 103.8898849, 1.3919819 ], [ 103.8898924, 1.3920102 ], [ 103.8898898, 1.3920378 ], [ 103.889876, 1.3920629 ], [ 103.8898661, 1.3920709 ], [ 103.8898768, 1.3921038 ], [ 103.8899391, 1.3920835 ], [ 103.8901777, 1.3928166 ], [ 103.8901001, 1.3928418 ], [ 103.8901086, 1.3928681 ], [ 103.8901628, 1.3928505 ], [ 103.8901705, 1.3928742 ], [ 103.8901465, 1.392882 ], [ 103.8901559, 1.3929107 ], [ 103.8901748, 1.392915 ], [ 103.8902097, 1.3929397 ], [ 103.8902326, 1.3929758 ], [ 103.8902398, 1.393018 ], [ 103.8902304, 1.3930597 ], [ 103.8902057, 1.3930946 ], [ 103.8901695, 1.3931174 ], [ 103.8901274, 1.3931247 ], [ 103.8900857, 1.3931153 ], [ 103.8900507, 1.3930906 ], [ 103.8900279, 1.3930544 ], [ 103.8900206, 1.3930123 ], [ 103.8900301, 1.3929706 ], [ 103.890051, 1.3929409 ], [ 103.8900266, 1.3928657 ], [ 103.889788, 1.3921326 ], [ 103.8898146, 1.392124 ], [ 103.8898022, 1.3920862 ], [ 103.8897978, 1.3920857 ], [ 103.8897727, 1.3920719 ], [ 103.8897658, 1.3920646 ], [ 103.8897548, 1.3920496 ], [ 103.8897467, 1.3920222 ] ] ] } },
{ "type": "Feature", "properties": { "osm_id": 33570266, "amenity": "school", "addr:housenumber": "71", "building": null, "name": "Springdale Primary School", "religion": null, "addr:postcode": "544799", "addr:street": "Anchorvale Link", "addr:city": "Singapore", "parking": null, "website": "https:\/\/springdalepri.moe.edu.sg\/", "fax": null, "contact:facebook": null, "name:ms": null, "wikipedia": null, "school": "primary", "addr:country": "SG", "phone": "+65 6315 7600", "wikidata": null, "name:zh": "康德小学", "email": "springdale_ps@moe.edu.sg" }, "geometry": { "type": "Polygon", "coordinates": [ [ [ 103.8889573, 1.3945606 ], [ 103.8897986, 1.3944776 ], [ 103.8899441, 1.3944829 ], [ 103.8903, 1.3944485 ], [ 103.8903929, 1.3944743 ], [ 103.8904316, 1.3945027 ], [ 103.8904668, 1.3945412 ], [ 103.8904906, 1.3945849 ], [ 103.8905046, 1.3946359 ], [ 103.8905974, 1.395367 ], [ 103.889052, 1.3955214 ], [ 103.8889573, 1.3945606 ] ] ] } }
]
}
